{"RECORDS":[{"CCSDS_OMM_VERS":85824.8,"CREATION_DATE":"2094-09-02T16:39:47.947Z","ORIGINATOR":"Morar, Little and Hermiston","OBJECT_NAME":"cCC*B}_|3!","OBJECT_ID":"jpCCy)NFae","CENTER_NAME":"5,{(\\6%u8g","REF_FRAME":9,"REF_FRAME_EPOCH":"2088-12-23T06:15:54.363Z","TIME_SYSTEM":4,"MEAN_ELEMENT_THEORY":1,"COMMENT":"vx}v6XWv,p","EPOCH":"2061-07-11T22:22:12.468Z","SEMI_MAJOR_AXIS":57812.12,"MEAN_MOTION":32034.76,"ECCENTRICITY":65023.31,"INCLINATION":39342.5,"RA_OF_ASC_NODE":27190.78,"ARG_OF_PERICENTER":16037.22,"MEAN_ANOMALY":34351.56,"GM":34343.07,"MASS":45744.38,"SOLAR_RAD_AREA":64266.15,"SOLAR_RAD_COEFF":49472.91,"DRAG_AREA":44417.57,"DRAG_COEFF":61851.98,"EPHEMERIS_TYPE":0,"CLASSIFICATION_TYPE":"p,qN]QhG:l","NORAD_CAT_ID":2937772747,"ELEMENT_SET_NO":700154963,"REV_AT_EPOCH":61099.2,"BSTAR":59585.85,"MEAN_MOTION_DOT":35012.11,"MEAN_MOTION_DDOT":33267.3,"COV_REF_FRAME":1,"CX_X":7014.5,"CY_X":50034.12,"CY_Y":78762.66,"CZ_X":36101.13,"CZ_Y":26083.44,"CZ_Z":23268.71,"CX_DOT_X":85160.61,"CX_DOT_Y":31783.94,"CX_DOT_Z":37048.34,"CX_DOT_X_DOT":45774.05,"CY_DOT_X":92923.81,"CY_DOT_Y":85409.44,"CY_DOT_Z":199.16,"CY_DOT_X_DOT":35613.33,"CY_DOT_Y_DOT":73601.78,"CZ_DOT_X":85884.83,"CZ_DOT_Y":79635,"CZ_DOT_Z":2007.86,"CZ_DOT_X_DOT":84972.22,"CZ_DOT_Y_DOT":53321.15,"CZ_DOT_Z_DOT":60389.03,"USER_DEFINED_BIP_0044_TYPE":4278213273,"USER_DEFINED_OBJECT_DESIGNATOR":"BFQ_)N|0=/","USER_DEFINED_EARTH_MODEL":"mx(Z[:rvHm","USER_DEFINED_EPOCH_TIMESTAMP":27079.97,"USER_DEFINED_MICROSECONDS":66538.23},{"CCSDS_OMM_VERS":43431.8,"CREATION_DATE":"2074-10-04T07:19:37.477Z","ORIGINATOR":"Kihn Group","OBJECT_NAME":"E#9)+VN9+l","OBJECT_ID":"lnf\\0JS+/I","CENTER_NAME":"VSs-o!ZQ:@","REF_FRAME":1,"REF_FRAME_EPOCH":"2001-03-06T21:29:30.239Z","TIME_SYSTEM":1,"MEAN_ELEMENT_THEORY":2,"COMMENT":"@^O\"!\\tG:&","EPOCH":"2038-12-26T20:13:18.109Z","SEMI_MAJOR_AXIS":43440.04,"MEAN_MOTION":64959.01,"ECCENTRICITY":49414.79,"INCLINATION":24283.79,"RA_OF_ASC_NODE":31953.47,"ARG_OF_PERICENTER":60159.32,"MEAN_ANOMALY":38550.66,"GM":96041.44,"MASS":9643.89,"SOLAR_RAD_AREA":81904.95,"SOLAR_RAD_COEFF":52061.58,"DRAG_AREA":88428.51,"DRAG_COEFF":39793.34,"EPHEMERIS_TYPE":3,"CLASSIFICATION_TYPE":"F|R*XEw,1l","NORAD_CAT_ID":1026688438,"ELEMENT_SET_NO":4097408573,"REV_AT_EPOCH":34607.24,"BSTAR":72185.78,"MEAN_MOTION_DOT":49912.78,"MEAN_MOTION_DDOT":99482.08,"COV_REF_FRAME":0,"CX_X":71590.82,"CY_X":75760.27,"CY_Y":68672.29,"CZ_X":44144.77,"CZ_Y":11412.27,"CZ_Z":12068.6,"CX_DOT_X":90589.88,"CX_DOT_Y":317.72,"CX_DOT_Z":36958.08,"CX_DOT_X_DOT":86365.73,"CY_DOT_X":34506.04,"CY_DOT_Y":51334.44,"CY_DOT_Z":8936.87,"CY_DOT_X_DOT":40020.42,"CY_DOT_Y_DOT":21023.76,"CZ_DOT_X":49940.53,"CZ_DOT_Y":60117.02,"CZ_DOT_Z":94039.69,"CZ_DOT_X_DOT":50732.57,"CZ_DOT_Y_DOT":73044.27,"CZ_DOT_Z_DOT":75171.19,"USER_DEFINED_BIP_0044_TYPE":785708246,"USER_DEFINED_OBJECT_DESIGNATOR":"fwXg&d;`2y","USER_DEFINED_EARTH_MODEL":"iQ7hWuO8*k","USER_DEFINED_EPOCH_TIMESTAMP":34454.6,"USER_DEFINED_MICROSECONDS":93651.66},{"CCSDS_OMM_VERS":58483.24,"CREATION_DATE":"2005-11-23T21:24:40.452Z","ORIGINATOR":"Dickinson, Bauch and Larson","OBJECT_NAME":"MFPh}1I{_s","OBJECT_ID":"L\"xh4Aj5|z","CENTER_NAME":"Fl88VC-Al0","REF_FRAME":6,"REF_FRAME_EPOCH":"2060-09-12T12:10:12.246Z","TIME_SYSTEM":2,"MEAN_ELEMENT_THEORY":1,"COMMENT":"Y4jRku]V.D","EPOCH":"2063-08-20T21:07:52.269Z","SEMI_MAJOR_AXIS":57578.92,"MEAN_MOTION":51906.91,"ECCENTRICITY":73556.07,"INCLINATION":66125.66,"RA_OF_ASC_NODE":332.75,"ARG_OF_PERICENTER":82641.33,"MEAN_ANOMALY":42745.66,"GM":16463.79,"MASS":81661.52,"SOLAR_RAD_AREA":99819.14,"SOLAR_RAD_COEFF":29665.92,"DRAG_AREA":62514.29,"DRAG_COEFF":55731.66,"EPHEMERIS_TYPE":0,"CLASSIFICATION_TYPE":"+],G}x5/\"l","NORAD_CAT_ID":3032256984,"ELEMENT_SET_NO":308577452,"REV_AT_EPOCH":80326.59,"BSTAR":91325.1,"MEAN_MOTION_DOT":52446.85,"MEAN_MOTION_DDOT":6553.3,"COV_REF_FRAME":2,"CX_X":53916.95,"CY_X":80883.93,"CY_Y":76235.18,"CZ_X":48522.18,"CZ_Y":39192.33,"CZ_Z":87530.48,"CX_DOT_X":53955.59,"CX_DOT_Y":37889.84,"CX_DOT_Z":41965.83,"CX_DOT_X_DOT":55434.76,"CY_DOT_X":81939.12,"CY_DOT_Y":18002,"CY_DOT_Z":57500.86,"CY_DOT_X_DOT":39022.04,"CY_DOT_Y_DOT":37046.21,"CZ_DOT_X":12440.89,"CZ_DOT_Y":75832.9,"CZ_DOT_Z":74026.49,"CZ_DOT_X_DOT":72294.54,"CZ_DOT_Y_DOT":79425.05,"CZ_DOT_Z_DOT":6628.61,"USER_DEFINED_BIP_0044_TYPE":1178966043,"USER_DEFINED_OBJECT_DESIGNATOR":"m(EKjqt6SE","USER_DEFINED_EARTH_MODEL":"eDM+KBUM*,","USER_DEFINED_EPOCH_TIMESTAMP":84080.06,"USER_DEFINED_MICROSECONDS":68888.44},{"CCSDS_OMM_VERS":27316.34,"CREATION_DATE":"1993-12-16T10:12:31.301Z","ORIGINATOR":"Bogisich - Mayert","OBJECT_NAME":"m.Cgb0O[I>","OBJECT_ID":"Q:8=D@{zAE","CENTER_NAME":".7}0($:'B2","REF_FRAME":0,"REF_FRAME_EPOCH":"2014-08-14T04:21:41.190Z","TIME_SYSTEM":11,"MEAN_ELEMENT_THEORY":0,"COMMENT":"BY7QRU8}CI","EPOCH":"2063-05-31T04:29:19.264Z","SEMI_MAJOR_AXIS":56710.45,"MEAN_MOTION":55815.57,"ECCENTRICITY":83431.96,"INCLINATION":61268.08,"RA_OF_ASC_NODE":80167.89,"ARG_OF_PERICENTER":1618.49,"MEAN_ANOMALY":84302.8,"GM":96635.17,"MASS":34396.12,"SOLAR_RAD_AREA":94445.28,"SOLAR_RAD_COEFF":3411.2,"DRAG_AREA":81821.06,"DRAG_COEFF":57369.8,"EPHEMERIS_TYPE":3,"CLASSIFICATION_TYPE":"|\\mq(2Qmug","NORAD_CAT_ID":2368688340,"ELEMENT_SET_NO":169024806,"REV_AT_EPOCH":32165.39,"BSTAR":95568.06,"MEAN_MOTION_DOT":82452.48,"MEAN_MOTION_DDOT":6437.11,"COV_REF_FRAME":2,"CX_X":68265.18,"CY_X":79224.42,"CY_Y":74325.58,"CZ_X":12847.65,"CZ_Y":2279.9,"CZ_Z":34888.78,"CX_DOT_X":99156.62,"CX_DOT_Y":61047.19,"CX_DOT_Z":28836.69,"CX_DOT_X_DOT":92274.33,"CY_DOT_X":28373.31,"CY_DOT_Y":78417.61,"CY_DOT_Z":25391.28,"CY_DOT_X_DOT":56492.06,"CY_DOT_Y_DOT":70202.91,"CZ_DOT_X":57490.1,"CZ_DOT_Y":99309.64,"CZ_DOT_Z":78737.83,"CZ_DOT_X_DOT":75751.25,"CZ_DOT_Y_DOT":55410.88,"CZ_DOT_Z_DOT":55548.79,"USER_DEFINED_BIP_0044_TYPE":2775340277,"USER_DEFINED_OBJECT_DESIGNATOR":"$llWKHhnd/","USER_DEFINED_EARTH_MODEL":"W3I0M?56$u","USER_DEFINED_EPOCH_TIMESTAMP":41258.34,"USER_DEFINED_MICROSECONDS":57103},{"CCSDS_OMM_VERS":3228.92,"CREATION_DATE":"2082-09-20T21:57:14.700Z","ORIGINATOR":"Bailey and Sons","OBJECT_NAME":"U/sY0_jz^`","OBJECT_ID":"gva-g;dkV5","CENTER_NAME":"`Ba/7q?tm+","REF_FRAME":10,"REF_FRAME_EPOCH":"2023-08-27T14:18:56.235Z","TIME_SYSTEM":5,"MEAN_ELEMENT_THEORY":1,"COMMENT":"-IZFFvt`?B","EPOCH":"2065-01-24T21:22:06.765Z","SEMI_MAJOR_AXIS":31283.21,"MEAN_MOTION":56077.77,"ECCENTRICITY":3097.22,"INCLINATION":8342.11,"RA_OF_ASC_NODE":86114.46,"ARG_OF_PERICENTER":68461.4,"MEAN_ANOMALY":96656.76,"GM":40622.02,"MASS":87495.8,"SOLAR_RAD_AREA":91693.94,"SOLAR_RAD_COEFF":48445.44,"DRAG_AREA":11800.16,"DRAG_COEFF":38824.09,"EPHEMERIS_TYPE":3,"CLASSIFICATION_TYPE":"e0h0S7y3<j","NORAD_CAT_ID":4152548643,"ELEMENT_SET_NO":851551108,"REV_AT_EPOCH":1765.14,"BSTAR":30078.43,"MEAN_MOTION_DOT":23849.72,"MEAN_MOTION_DDOT":33781.54,"COV_REF_FRAME":1,"CX_X":10669.72,"CY_X":17865.91,"CY_Y":64077.8,"CZ_X":98597.57,"CZ_Y":13317.01,"CZ_Z":73995.09,"CX_DOT_X":3586.53,"CX_DOT_Y":69749.84,"CX_DOT_Z":55698.11,"CX_DOT_X_DOT":93528.09,"CY_DOT_X":21231.28,"CY_DOT_Y":19600.1,"CY_DOT_Z":65143.99,"CY_DOT_X_DOT":70538.39,"CY_DOT_Y_DOT":55461.71,"CZ_DOT_X":22825.43,"CZ_DOT_Y":92577.08,"CZ_DOT_Z":63146.27,"CZ_DOT_X_DOT":38462.78,"CZ_DOT_Y_DOT":46960.5,"CZ_DOT_Z_DOT":61632.66,"USER_DEFINED_BIP_0044_TYPE":2442270039,"USER_DEFINED_OBJECT_DESIGNATOR":"\\<g8#0]MQL","USER_DEFINED_EARTH_MODEL":"V0r5U_-rrp","USER_DEFINED_EPOCH_TIMESTAMP":54470.72,"USER_DEFINED_MICROSECONDS":59645.09},{"CCSDS_OMM_VERS":89891.02,"CREATION_DATE":"2060-03-24T11:01:25.387Z","ORIGINATOR":"Lockman Inc","OBJECT_NAME":"Q#h4Q:[|Tx","OBJECT_ID":"Ju95\"`w\\,F","CENTER_NAME":"iDgPl@CZ;C","REF_FRAME":1,"REF_FRAME_EPOCH":"2051-03-23T02:31:27.958Z","TIME_SYSTEM":2,"MEAN_ELEMENT_THEORY":1,"COMMENT":"6REg0Vzmd5","EPOCH":"1997-12-01T14:25:14.839Z","SEMI_MAJOR_AXIS":74071.41,"MEAN_MOTION":9878.36,"ECCENTRICITY":66290.87,"INCLINATION":10392.85,"RA_OF_ASC_NODE":79023.14,"ARG_OF_PERICENTER":15019.37,"MEAN_ANOMALY":73179.05,"GM":86674.22,"MASS":5375.26,"SOLAR_RAD_AREA":70952.78,"SOLAR_RAD_COEFF":80463.45,"DRAG_AREA":99957.4,"DRAG_COEFF":9409.79,"EPHEMERIS_TYPE":3,"CLASSIFICATION_TYPE":"\\NHPn?uQFn","NORAD_CAT_ID":699685906,"ELEMENT_SET_NO":619796739,"REV_AT_EPOCH":99233.51,"BSTAR":1452.16,"MEAN_MOTION_DOT":41828.08,"MEAN_MOTION_DDOT":10821.83,"COV_REF_FRAME":1,"CX_X":31498.18,"CY_X":3371.63,"CY_Y":53368.91,"CZ_X":41283.84,"CZ_Y":98192.98,"CZ_Z":88396.31,"CX_DOT_X":2133.57,"CX_DOT_Y":35406.18,"CX_DOT_Z":23607.07,"CX_DOT_X_DOT":23428.88,"CY_DOT_X":81949.94,"CY_DOT_Y":65204.3,"CY_DOT_Z":4471.46,"CY_DOT_X_DOT":95675.47,"CY_DOT_Y_DOT":55856.36,"CZ_DOT_X":64167.5,"CZ_DOT_Y":85669.89,"CZ_DOT_Z":63059.79,"CZ_DOT_X_DOT":10278.46,"CZ_DOT_Y_DOT":78901.28,"CZ_DOT_Z_DOT":14643.59,"USER_DEFINED_BIP_0044_TYPE":1999040421,"USER_DEFINED_OBJECT_DESIGNATOR":"k(jp#K${,8","USER_DEFINED_EARTH_MODEL":"p<ybAc`33n","USER_DEFINED_EPOCH_TIMESTAMP":30712.12,"USER_DEFINED_MICROSECONDS":26262.28}]}